OBJECT_NAME,OBJECT_ID,EPOCH,MEAN_MOTION,ECCENTRICITY,INCLINATION,RA_OF_ASC_NODE,ARG_OF_PERICENTER,MEAN_ANOMALY,EPHEMERIS_TYPE,CLASSIFICATION_TYPE,NORAD_CAT_ID,ELEMENT_SET_NO,REV_AT_EPOCH,BSTAR,MEAN_MOTION_DOT,MEAN_MOTION_DDOT
STARLINK-2086,2021-005X,2024-09-23T08:14:27.658752,15.06409800,.0001539,53.0537,251.4129,97.8974,262.2190,0,U,47370,999,20337,.61535E-3,.8898E-4,0
STARLINK-2088,2021-005Y,2024-09-23T11:04:18.121440,15.06411673,.0001389,53.0546,290.8823,95.6677,264.4470,0,U,47371,999,20282,.36896E-3,.522E-4,0
STARLINK-2089,2021-005Z,2024-09-23T10:57:03.494016,15.06405854,.0001352,53.0531,286.2275,104.1349,255.9790,0,U,47372,999,20288,.15989E-3,.2101E-4,0
STARLINK-2093,2021-005AB,2024-09-23T08:14:26.869920,15.06409920,.0000212,53.0537,291.3842,120.2544,239.8466,0,U,47374,999,20280,.46993E-3,.6727E-4,0
STARLINK-2094,2021-005AC,2024-09-23T08:25:03.484128,15.06403570,.0001578,53.0542,291.3814,96.5024,263.6145,0,U,47375,999,20280,.97779E-4,.1175E-4,0
STARLINK-2096,2021-005AD,2024-09-23T08:30:22.546368,15.06408281,.0001384,53.0541,291.3637,92.5968,267.5179,0,U,47376,999,20280,.22791E-3,.3116E-4,0
STARLINK-2097,2021-005AE,2024-09-23T08:09:09.210816,15.06411377,.0001285,53.0531,291.4323,90.7263,269.3873,0,U,47377,999,20280,.46699E-3,.6683E-4,0
STARLINK-2098,2021-005AF,2024-09-23T06:22:59.083104,15.06401166,.0001318,53.0535,251.7576,81.1736,278.9402,0,U,47378,999,20335,.11566E-3,.1442E-4,0
STARLINK-2099,2021-005AG,2024-09-23T08:07:46.889760,15.06407214,.0001431,53.0541,251.4240,88.2170,271.8983,0,U,47379,999,20336,.15388E-3,.2012E-4,0
STARLINK-2100,2021-005AH,2024-09-23T08:50:17.046240,15.06400457,.0001378,53.0531,261.3032,89.7910,270.3237,0,U,47380,999,20323,.22924E-3,.3135E-4,0
STARLINK-2101,2021-005AJ,2024-09-23T09:13:30.681696,15.06399338,.0001326,53.0536,266.3175,97.7499,262.3640,0,U,47381,999,20316,.16604E-3,.2193E-4,0
STARLINK-2102,2021-005AK,2024-09-23T07:04:07.088736,15.06399850,.0001394,53.0539,261.6338,83.7278,276.3870,0,U,47382,999,20321,.13217E-3,.1688E-4,0
STARLINK-2103,2021-005AL,2024-09-23T08:09:11.535840,15.06396913,.0001403,53.0547,251.7097,95.7255,264.3894,0,U,47383,999,20336,.15635E-3,.2048E-4,0
STARLINK-2104,2021-005AM,2024-09-23T06:42:55.567584,15.06398777,.0001375,53.0521,261.9409,90.5237,269.5910,0,U,47384,999,20321,.99564E-4,.1202E-4,0
STARLINK-2105,2021-005AN,2024-09-23T06:37:35.366592,15.06403436,.0001432,53.0523,261.7166,90.8798,269.2355,0,U,47385,999,20321,.28764E-3,.4006E-4,0
STARLINK-2106,2021-005AP,2024-09-23T08:55:34.564512,15.06401355,.0001374,53.0530,261.2854,87.4051,272.7096,0,U,47386,999,20323,.9338E-4,.111E-4,0
STARLINK-2108,2021-005AQ,2024-09-19T21:40:17.052096,15.95634126,.0002688,53.0500,292.4317,109.0306,313.0406,0,U,47387,999,20247,.33847E-2,.1374429E-1,.95874E-3
STARLINK-2111,2021-005AT,2024-09-23T08:19:46.061760,15.06405869,.0001662,53.0541,291.3983,95.9896,264.1282,0,U,47390,999,20280,.24335E-3,.3346E-4,0
STARLINK-2112,2021-005AU,2024-09-23T06:57:27.576864,15.06394384,.0001515,53.0557,261.6543,95.5382,264.5780,0,U,47391,999,20321,.11635E-3,.1452E-4,0
STARLINK-2113,2021-005AV,2024-09-23T05:23:16.549440,15.06402942,.0001464,53.0542,261.9462,84.8135,275.3021,0,U,47392,999,20320,.19601E-3,.2639E-4,0
STARLINK-2114,2021-005AW,2024-09-23T07:36:42.402816,15.06415815,.0001459,53.0519,236.8883,92.0140,268.1016,0,U,47393,999,20356,.76273E-3,.11102E-3,0
STARLINK-2115,2021-005AX,2024-09-23T09:09:33.113664,15.06404230,.0001411,53.0527,256.4066,101.7706,258.3441,0,U,47394,999,20330,.34576E-3,.4873E-4,0
STARLINK-2117,2021-005AY,2024-09-23T08:03:49.867776,15.06401527,.0001308,53.0540,251.4454,94.1318,265.9820,0,U,47395,999,20336,.24351E-3,.3348E-4,0
STARLINK-2120,2021-005BB,2024-09-23T06:48:11.266272,15.06400388,.0001247,53.0533,261.6829,93.5496,266.5636,0,U,47398,999,20321,.11162E-3,.1382E-4,0
STARLINK-2121,2021-005BC,2024-09-23T09:15:31.705632,15.06396768,.0001385,53.0548,271.4656,96.8918,263.2229,0,U,47399,999,20308,.68541E-4,.74E-5,0
STARLINK-2122,2021-005BD,2024-09-23T08:19:45.807744,15.06402737,.0001425,53.0537,251.4077,96.9134,263.2017,0,U,47400,999,20336,.30997E-3,.4339E-4,0
