STARLINK-2086           
1 47370U 21005X   24267.34337568  .00008898  00000+0  61535-3 0  9994
2 47370  53.0537 251.4129 0001539  97.8974 262.2190 15.06409800203372
STARLINK-2088           
1 47371U 21005Y   24267.46132085  .00005220  00000+0  36896-3 0  9993
2 47371  53.0546 290.8823 0001389  95.6677 264.4470 15.06411673202825
STARLINK-2089           
1 47372U 21005Z   24267.45629044  .00002101  00000+0  15989-3 0  9994
2 47372  53.0531 286.2275 0001352 104.1349 255.9790 15.06405854202882
STARLINK-2093           
1 47374U 21005AB  24267.34336655  .00006727  00000+0  46993-3 0  9994
2 47374  53.0537 291.3842 0000212 120.2544 239.8466 15.06409920202808
STARLINK-2094           
1 47375U 21005AC  24267.35073477  .00001175  00000+0  97779-4 0  9997
2 47375  53.0542 291.3814 0001578  96.5024 263.6145 15.06403570202802
STARLINK-2096           
1 47376U 21005AD  24267.35442762  .00003116  00000+0  22791-3 0  9993
2 47376  53.0541 291.3637 0001384  92.5968 267.5179 15.06408281202807
STARLINK-2097           
1 47377U 21005AE  24267.33968994  .00006683  00000+0  46699-3 0  9997
2 47377  53.0531 291.4323 0001285  90.7263 269.3873 15.06411377202809
STARLINK-2098           
1 47378U 21005AF  24267.26596161  .00001442  00000+0  11566-3 0  9996
2 47378  53.0535 251.7576 0001318  81.1736 278.9402 15.06401166203359
STARLINK-2099           
1 47379U 21005AG  24267.33873715  .00002012  00000+0  15388-3 0  9998
2 47379  53.0541 251.4240 0001431  88.2170 271.8983 15.06407214203365
STARLINK-2100           
1 47380U 21005AH  24267.36825285  .00003135  00000+0  22924-3 0  9993
2 47380  53.0531 261.3032 0001378  89.7910 270.3237 15.06400457203237
STARLINK-2101           
1 47381U 21005AJ  24267.38438289  .00002193  00000+0  16604-3 0  9991
2 47381  53.0536 266.3175 0001326  97.7499 262.3640 15.06399338203166
STARLINK-2102           
1 47382U 21005AK  24267.29452649  .00001688  00000+0  13217-3 0  9993
2 47382  53.0539 261.6338 0001394  83.7278 276.3870 15.06399850203219
STARLINK-2103           
1 47383U 21005AL  24267.33971685  .00002048  00000+0  15635-3 0  9992
2 47383  53.0547 251.7097 0001403  95.7255 264.3894 15.06396913203366
STARLINK-2104           
1 47384U 21005AM  24267.27980981  .00001202  00000+0  99564-4 0  9990
2 47384  53.0521 261.9409 0001375  90.5237 269.5910 15.06398777203210
STARLINK-2105           
1 47385U 21005AN  24267.27610378  .00004006  00000+0  28764-3 0  9999
2 47385  53.0523 261.7166 0001432  90.8798 269.2355 15.06403436203219
STARLINK-2106           
1 47386U 21005AP  24267.37192783  .00001110  00000+0  93380-4 0  9996
2 47386  53.0530 261.2854 0001374  87.4051 272.7096 15.06401355203237
STARLINK-2108           
1 47387U 21005AQ  24263.90297514  .01374429  95874-3  33847-2 0  9994
2 47387  53.0500 292.4317 0002688 109.0306 313.0406 15.95634126202479
STARLINK-2111           
1 47390U 21005AT  24267.34706090  .00003346  00000+0  24335-3 0  9996
2 47390  53.0541 291.3983 0001662  95.9896 264.1282 15.06405869202800
STARLINK-2112           
1 47391U 21005AU  24267.28990251  .00001452  00000+0  11635-3 0  9999
2 47391  53.0557 261.6543 0001515  95.5382 264.5780 15.06394384203215
STARLINK-2113           
1 47392U 21005AV  24267.22449710  .00002639  00000+0  19601-3 0  9992
2 47392  53.0542 261.9462 0001464  84.8135 275.3021 15.06402942203200
STARLINK-2114           
1 47393U 21005AW  24267.31715744  .00011102  00000+0  76273-3 0  9999
2 47393  53.0519 236.8883 0001459  92.0140 268.1016 15.06415815203560
STARLINK-2115           
1 47394U 21005AX  24267.38163326  .00004873  00000+0  34576-3 0  9997
2 47394  53.0527 256.4066 0001411 101.7706 258.3441 15.06404230203309
STARLINK-2117           
1 47395U 21005AY  24267.33599384  .00003348  00000+0  24351-3 0  9996
2 47395  53.0540 251.4454 0001308  94.1318 265.9820 15.06401527203367
STARLINK-2120           
1 47398U 21005BB  24267.28346373  .00001382  00000+0  11162-3 0  9993
2 47398  53.0533 261.6829 0001247  93.5496 266.5636 15.06400388203213
STARLINK-2121           
1 47399U 21005BC  24267.38578363  .00000740  00000+0  68541-4 0  9992
2 47399  53.0548 271.4656 0001385  96.8918 263.2229 15.06396768203088
STARLINK-2122           
1 47400U 21005BD  24267.34705796  .00004339  00000+0  30997-3 0  9994
2 47400  53.0537 251.4077 0001425  96.9134 263.2017 15.06402737203360
